[
    {
        "Altitude(m)": 612502.2277567056,
        "Argument of Periapsis(deg)": 0.0,
        "Eccentricity": 0.0,
        "Inclination(deg)": 60.0,
        "Latitude(deg)": -28.136080399899335,
        "Longitude(deg)": -7.851698190996726,
        "Mean Anomaly(deg)": -32.727299999999985,
        "RAAN(deg)": 110.00000000000001,
        "Satellite Name": "Test1 504",
        "Satellite Number": 504,
        "Semi-Major Axis(m)": 6980739.136638005,
        "Time(s)": 0
    },
    {
        "Altitude(m)": 612308.675055686,
        "Argument of Periapsis(deg)": 0.00010418945913296404,
        "Eccentricity": 0.0,
        "Inclination(deg)": 60.0,
        "Latitude(deg)": -27.623135101888636,
        "Longitude(deg)": -7.498224823054111,
        "Mean Anomaly(deg)": -32.107193854538146,
        "RAAN(deg)": 109.99957995086025,
        "Satellite Name": "Test1 504",
        "Satellite Number": 504,
        "Semi-Major Axis(m)": 6980739.136638005,
        "Time(s)": 10
    }
]